GLOBALSTAR M075         
1 37192U 10054E   24347.54597412 -.00000086  00000+0  98498-4 0  9995
2 37192  51.9967  29.8180 0000364 104.0305  43.3437 12.62269977652272
GLOBALSTAR M073         
1 37193U 10054F   24347.39251955 -.00000100  00000+0  18297-4 0  9994
2 37193  52.0073 303.9614 0000435  33.9504 135.9422 12.62273775654243
GLOBALSTAR M083         
1 37739U 11033A   24347.16715251 -.00000084  00000+0  11037-3 0  9992
2 37739  51.9855 253.6358 0000728  77.3634  87.7031 12.62269203623238
GLOBALSTAR M088         
1 37740U 11033B   24347.50771826 -.00000078  00000+0  14599-3 0  9991
2 37740  51.9705 158.2445 0001089 103.0121 290.9887 12.62266500618823
GLOBALSTAR M091         
1 37741U 11033C   24347.36039481 -.00000093  00000+0  57878-4 0  9995
2 37741  51.9984 121.9152 0001103 124.2808 258.8275 12.62271742619592
GLOBALSTAR M085         
1 37742U 11033D   24347.69482307 -.00000100  00000+0  21432-4 0  9997
2 37742  51.9879  72.0991 0000810 138.3862  26.3303 12.62270105620632
GLOBALSTAR M081         
1 37743U 11033E   24347.72032435 -.00000106  00000+0 -10191-4 0  9992
2 37743  51.9968  74.6929 0000575 148.5696  12.2344 12.62273998620673
GLOBALSTAR M089         
1 37744U 11033F   24347.41086531 -.00000072  00000+0  17506-3 0  9992
2 37744  51.9950  29.9007 0000202  63.1862 309.7538 12.62273306621100
